ONEWEB-0228             
1 48780U 21045P   23300.12306831 -.00000012  00000+0 -66076-4 0  9994
2 48780  87.8954  91.1182 0001597  87.1622 272.9691 13.15548195118705
